{
  "norad_id": 68970,
  "name": "STARLINK-37257",
  "history": [
    {
      "epoch": "2026-05-12T20:00:01.999008Z",
      "apogee_km": 328.5804886293645,
      "perigee_km": 327.3023100864475,
      "latitude_deg": 36.580065875979706,
      "longitude_deg": -165.46208093295598,
      "height_km": 330.35183975464855,
      "semi_major_axis_km": 6706.078399357906,
      "eccentricity": 9.53e-05,
      "inclination_deg": 53.1591,
      "raan_deg": 331.584,
      "arg_perigee_deg": 90.4722,
      "mean_anomaly_deg": 317.4824,
      "mean_motion_rev_day": 15.80883339
    }
  ]
}