STARLINK-37257          
1 68970U 26099V   26132.83335648 -.00040574  00000+0 -20289-3 0  9995
2 68970  53.1591 331.5840 0000953  90.4722 317.4824 15.80883339  2875
